# FY3D (LEO)
1 43010U 17072A   25301.63229765  .00000174  00000+0  10392-3 0  9995
2 43010  98.9821 267.2820 0001766  26.3953 333.7312 14.19662870412139

# FY3E (LEO)
1 49008U 21062A   25301.64504422  .00000027  00000+0  33250-4 0  9995
2 49008  98.7480 302.6987 0002417  56.3231 303.8175 14.19870762223726

# FY3F (LEO)
1 57490U 23111A   25301.63239017  .00000118  00000+0  76293-4 0  9995
2 57490  98.7135  10.6426 0001344  81.0695 279.0634 14.19875630116003

# FY3G (LEO)
1 56232U 23055A   25301.62371248  .00036773  00000+0  58821-3 0  9999
2 56232  49.9939 100.0863 0020476 300.9633  58.9322 15.52500298144010

# C2E1 (LEO)
1 44349U 19036L   25301.27924115  .00004703  00000+0  36351-3 0  9999
2 44349  23.9963 156.9586 0001128 114.6643 245.3976 14.97971003349862

# C2E2 (LEO)
1 44351U 19036N   25301.25681851  .00005292  00000+0  41221-3 0  9993
2 44351  23.9990 273.5168 0001262 129.6185 230.4428 14.97964760348793

# C2E3 (LEO)
1 44343U 19036E   25300.43986797  .00006744  00000+0  41480-3 0  9990
2 44343  24.0007 337.5939 0000914  65.8066 294.2533 15.07176982348051

# C2E4 (LEO)
1 44350U 19036M   25301.43403454  .00005329  00000+0  41527-3 0  9993
2 44350  23.9981 217.9996 0001187 120.7649 239.2969 14.97963993349308

# C2E5 (LEO)
1 44358U 19036V   25301.56967486  .00005120  00000+0  39415-3 0  9997
2 44358  24.0001  31.0007 0001148  32.1871 327.8700 14.98332344347608

# C2E6 (LEO)
1 44353U 19036Q   25301.59008061  .00004922  00000+0  38176-3 0  9992
2 44353  23.9976  92.0867 0001551 136.6147 223.4477 14.97954372347070

# G01 (GNSS)
1 62339U 24242A   25299.51530042 -.00000077  00000+0  00000+0 0  9997
2 62339  54.9373 343.6552 0009694 342.0382  19.5735  2.00566970  6577

# G02 (GNSS)
1 28474U 04045A   25301.48698793 -.00000056  00000+0  00000+0 0  9993
2 28474  55.2618 334.2273 0169388 307.4198  69.3790  2.00567454153786

# G03 (GNSS)
1 40294U 14068A   25297.59791060 -.00000070  00000+0  00000+0 0  9996
2 40294  56.8228  40.0465 0061220  69.8875 290.7820  2.00561963 80485

# G04 (GNSS)
1 43873U 18109A   25301.59808177  .00000064  00000+0  00000+0 0  9998
2 43873  55.5406 101.3295 0036557 193.5524 117.0300  2.00552506 50426

# G05 (GNSS)
1 35752U 09043A   25301.03835814 -.00000060  00000+0  00000+0 0  9996
2 35752  56.0606  36.5853 0053253  82.2788 104.1091  2.00568467118701

# G06 (GNSS)
1 39741U 14026A   25300.12548361 -.00000068  00000+0  00000+0 0  9990
2 39741  56.6003 340.5908 0037535 316.9842  42.7825  2.00564755 83868

# G07 (GNSS)
1 32711U 08012A   25300.30646682  .00000046  00000+0  00000+0 0  9998
2 32711  54.4696 159.2273 0201050 244.5061 113.4864  2.00563537129087

# G08 (GNSS)
1 40730U 15033A   25300.88203798 -.00000001  00000+0  00000+0 0  9991
2 40730  54.1700 276.6589 0108101  25.8002 334.7290  2.00567943 75336

# G09 (GNSS)
1 40105U 14045A   25300.71387492  .00000050  00000+0  00000+0 0  9998
2 40105  55.1996  97.7350 0033325 118.5056 241.8393  2.00569804 81418

# G10 (GNSS)
1 41019U 15062A   25301.43957854 -.00000054  00000+0  00000+0 0  9993
2 41019  56.8011  39.7545 0109155 228.7971 130.2812  2.00567118 73184

# G11 (GNSS)
1 48859U 21054A   25289.21780060 -.00000094  00000+0  00000+0 0  9998
2 48859  55.2757 342.2645 0024064 230.1083 138.8203  2.00556506 31868

# G12 (GNSS)
1 29601U 06052A   25301.07889740  .00000002  00000+0  00000+0 0  9995
2 29601  54.9827 223.2097 0086335  87.0702 273.9485  2.00570584138752

# G13 (GNSS)
1 24876U 97035A   25301.36188560  .00000070  00000+0  00000+0 0  9994
2 24876  55.8720 107.6437 0096237  56.9009 304.0409  2.00563335207309

# G14 (GNSS)
1 46826U 20078A   25289.20312859 -.00000051  00000+0  00000+0 0  9994
2 46826  54.0306 220.6753 0063294 203.5880 326.5084  2.00567133 36612

# G15 (GNSS)
1 32260U 07047A   25300.88487662  .00000037  00000+0  00000+0 0  9998
2 32260  53.9226  89.6521 0164694  84.5641 277.3142  2.00566441132157

# G16 (GNSS)
1 27663U 03005A   25301.42371238  .00000000  00000+0  00000+0 0  9991
2 27663  54.9365 224.1800 0145430  51.1637  60.3013  2.00573368166667

# G17 (GNSS)
1 28874U 05038A   25301.27614347 -.00000001  00000+0  00000+0 0  9990
2 28874  55.0717 282.5309 0133606 292.4255 253.0462  2.00551269147186

# G18 (GNSS)
1 44506U 19056A   25301.55245844 -.00000062  00000+0  00000+0 0  9995
2 44506  55.7377 340.3487 0057537 197.3510 335.3707  2.00565016 45425

# G19 (GNSS)
1 28190U 04009A   25301.09858885 -.00000003  00000+0  00000+0 0  9997
2 28190  55.0260 285.0581 0107740 166.7384 230.5080  2.00562580158294

# G20 (GNSS)
1 26360U 00025A   25301.06058844 -.00000072  00000+0  00000+0 0  9998
2 26360  55.0191  28.6859 0038153 237.7043 356.6580  2.00571481186617

# G21 (GNSS)
1 64202U 25116A   25301.24245115 -.00000055  00000+0  00000+0 0  9993
2 64202  55.0730  40.4794 0003535 299.9916  59.4381  2.00561407  3216

# G22 (GNSS)
1 26407U 00040A   25301.61836198 -.00000001  00000+0  00000+0 0  9996
2 26407  54.9035 224.3622 0128535 300.9014 175.9601  2.00567348185300

# G23 (GNSS)
1 45854U 20041A   25301.15647190 -.00000058  00000+0  00000+0 0  9999
2 45854  56.5152  37.9618 0059302 201.4741 350.0025  2.00563019 39388

# G24 (GNSS)
1 38833U 12053A   25300.98255893  .00000054  00000+0  00000+0 0  9992
2 38833  53.5489 153.1133 0174069  63.2103 298.6442  2.00564641 94781

# G25 (GNSS)
1 36585U 10022A   25301.13463627  .00000002  00000+0  00000+0 0  9995
2 36585  54.3094 217.9124 0123854  64.5670 311.8329  2.00550810112946

# G26 (GNSS)
1 40534U 15013A   25301.21889573  .00000001  00000+0  00000+0 0  9999
2 40534  53.2074 213.7748 0104779  37.2797 323.4887  2.00565238 77172

# G27 (GNSS)
1 39166U 13023A   25301.34480719  .00000000  00000+0  00000+0 0  9999
2 39166  54.6909 278.4128 0135217  48.2221 312.9227  2.00565362 91230

# G28 (GNSS)
1 55268U 23009A   25301.37336584  .00000055  00000+0  00000+0 0  9998
2 55268  55.0995 157.6279 0003562   1.3052 185.9685  2.00559489 20595

# G29 (GNSS)
1 32384U 07062A   25301.44208602 -.00000001  00000+0  00000+0 0  9992
2 32384  55.2218 283.4623 0032271 163.7531   8.1319  2.00575126130862

# G30 (GNSS)
1 39533U 14008A   25300.84247950  .00000047  00000+0  00000+0 0  9994
2 39533  53.6234 158.7971 0078410 226.1490 133.2855  2.00571812 85028

# G31 (GNSS)
1 29486U 06042A   25301.29819747  .00000050  00000+0  00000+0 0  9992
2 29486  54.6880 160.5447 0107086  50.6868  53.7656  2.00555881139744

# G32 (GNSS)
1 41328U 16007A   25301.02279962  .00000055  00000+0  00000+0 0  9998
2 41328  55.3805  98.6712 0090019 242.7008 116.3907  2.00563132 71187

# C06 (GNSS)
1 36828U 10036A   25301.58777447 -.00000085  00000+0  00000+0 0  9999
2 36828  54.2773 165.0585 0050928 216.1785 333.9580  1.00289597 55777

# C04 (GNSS)
1 37210U 10057A   25301.69190859 -.00000100  00000+0  00000+0 0  9994
2 37210   3.0680  70.0643 0009739 177.9971 198.2809  1.00273635 54970

# C07 (GNSS)
1 37256U 10068A   25295.62146750 -.00000196  00000+0  00000+0 0  9997
2 37256  47.9774 274.7760 0047363 217.7614 226.5684  1.00248503 54417

# C14 (GNSS)
1 38775U 12050B   25300.86592215  .00000006  00000+0  00000+0 0  9990
2 38775  56.3399  70.5891 0010452 352.9385   7.0405  1.86230932 88987

# C01 (GNSS)
1 44231U 19027A   25301.64348352 -.00000235  00000+0  00000+0 0  9998
2 44231   1.5429  74.5258 0006973 259.1150  79.7350  1.00276100 23751

# C24 (GNSS)
1 43582U 18062B   25301.00559442  .00000018  00000+0  00000+0 0  9996
2 43582  54.0899 190.1891 0006987  36.9823 323.1472  1.86229901 49316

# C26 (GNSS)
1 43602U 18067A   25300.94291690  .00000019  00000+0  00000+0 0  9995
2 43602  54.1837 188.9177 0008796  36.4592 323.6836  1.86227655 48796

# C25 (GNSS)
1 43603U 18067B   25301.07730669  .00000019  00000+0  00000+0 0  9995
2 43603  54.1811 188.8773 0005275  29.5864 330.5260  1.86227191 48821

# C32 (GNSS)
1 43622U 18072A   25301.03419462  .00000006  00000+0  00000+0 0  9999
2 43622  56.4198  70.3333 0004309 306.1059  53.8487  1.86231029 48336

# C33 (GNSS)
1 43623U 18072B   25300.89966156  .00000006  00000+0  00000+0 0  9990
2 43623  56.4219  70.3316 0002575   3.4583 356.5375  1.86231043 48328

# C35 (GNSS)
1 43647U 18078A   25301.05814497 -.00000029  00000+0  00000+0 0  9997
2 43647  54.3030 308.1185 0006250  17.4850 342.5612  1.86232362 47833

# C34 (GNSS)
1 43648U 18078B   25301.18733786 -.00000028  00000+0  00000+0 0  9992
2 43648  54.2986 308.1150 0002842  15.9301 344.1036  1.86232271 47851

# C59 (GNSS)
1 43683U 18085A   25301.35765458 -.00000266  00000+0  00000+0 0  9993
2 43683   2.9891 103.8598 0002794  13.0493 188.7594  1.00266178 25731

# C36 (GNSS)
1 43706U 18093A   25301.62354832  .00000019  00000+0  00000+0 0  9993
2 43706  54.1737 190.1541 0007315 302.0444 244.6265  1.86228365 47228

# C37 (GNSS)
1 43707U 18093B   25301.20637306  .00000018  00000+0  00000+0 0  9997
2 43707  54.1744 190.1599 0006796 340.0596  19.9948  1.86230050 47216

# C38 (GNSS)
1 44204U 19023A   25301.61170329 -.00000208  00000+0  00000+0 0  9998
2 44204  58.3703  40.0462 0026494 218.7245 115.7299  1.00258308  4883

# C39 (GNSS)
1 44337U 19035A   25301.53410203 -.00000091  00000+0  00000+0 0  9997
2 44337  55.2162 160.9007 0037325 202.3227 344.9679  1.00285556 23341

# C46 (GNSS)
1 44542U 19061A   25301.27791786  .00000018  00000+0  00000+0 0  9991
2 44542  54.4011 190.5509 0009235  16.1831 343.9268  1.86229427 41476

# C45 (GNSS)
1 44543U 19061B   25301.69286113  .00000019  00000+0  00000+0 0  9992
2 44543  54.3997 190.5054 0005867   9.9090 181.2182  1.86229514 41484

# C40 (GNSS)
1 44709U 19073A   25301.35821447 -.00000165  00000+0  00000+0 0  9990
2 44709  55.2026 283.4045 0045045 191.9517 167.9060  1.00257308 22136

# C44 (GNSS)
1 44793U 19078A   25301.11849678 -.00000029  00000+0  00000+0 0  9997
2 44793  54.1493 307.9871 0004908  22.3798 337.6661  1.86232139 40328

# C43 (GNSS)
1 44794U 19078B   25301.25512245 -.00000028  00000+0  00000+0 0  9999
2 44794  54.1226 307.9481 0003139   7.0759 352.9531  1.86227800 40338
